{"version": 0.6, "generator": "Overpass API 0.7.58.2 2b5354b1", "osm3s": {"timestamp_osm_base": "2022-06-13T13:02:55Z", "copyright": "The data included in this document is from www.openstreetmap.org. The data is made available under ODbL."}, "elements": [{"type": "node", "id": 1028915996, "lat": 34.0668178, "lon": -118.4101526, "tags": {"amenity": "cafe", "brand": "Starbucks", "brand:wikidata": "Q37158", "brand:wikipedia": "en:Starbucks", "cuisine": "coffee_shop", "name": "Starbucks", "official_name": "Starbucks Coffee", "takeaway": "yes"}}, {"type": "node", "id": 1028939699, "lat": 34.0677999, "lon": -118.4064089, "tags": {"amenity": "cafe", "name": "Modigliani Cafe"}}, {"type": "node", "id": 1715711914, "lat": 34.0682957, "lon": -118.405292, "tags": {"amenity": "cafe"}}, {"type": "node", "id": 1898409087, "lat": 34.0637237, "lon": -118.399308, "tags": {"amenity": "cafe", "brand": "The Coffee Bean & Tea Leaf", "brand:wikidata": "Q1141384", "brand:wikipedia": "en:The Coffee Bean & Tea Leaf", "cuisine": "coffee_shop", "name": "The Coffee Bean & Tea Leaf", "takeaway": "yes"}}, {"type": "node", "id": 1996096482, "lat": 34.0648599, "lon": -118.398915, "tags": {"amenity": "cafe", "brand": "Starbucks", "brand:wikidata": "Q37158", "brand:wikipedia": "en:Starbucks", "cuisine": "coffee_shop", "name": "Starbucks", "official_name": "Starbucks Coffee", "takeaway": "yes"}}, {"type": "node", "id": 4679278389, "lat": 34.0741878, "lon": -118.3964507, "tags": {"addr:housenumber": "331", "addr:postcode": "90210", "addr:street": "Foothill Road", "amenity": "cafe", "name": "The Real Peach Pitt Cafe", "name:en": "The Real Peach Pitt Cafe"}}, {"type": "node", "id": 4903112330, "lat": 34.0699358, "lon": -118.4055788, "tags": {"amenity": "cafe", "name": "Panini Cafe", "name:en": "Panini Cafe"}}, {"type": "node", "id": 4933342783, "lat": 34.0727611, "lon": -118.3993385, "tags": {"amenity": "cafe", "cuisine": "coffee_shop;sandwich", "name": "Kelly's Coffee & Fudge Factory", "outdoor_seating": "yes"}}, {"type": "node", "id": 5282412701, "lat": 34.0703159, "lon": -118.3992987, "tags": {"amenity": "cafe", "name": "Tutto Bene"}}, {"type": "node", "id": 5492221511, "lat": 34.0627048, "lon": -118.3989122, "tags": {"addr:housenumber": "262", "addr:street": "South Beverly Drive", "amenity": "cafe", "cuisine": "coffee_shop;bagel;sandwich", "drink:coffee": "yes", "name": "Brooklyn Water Bagel", "opening_hours": "Mo-Fr 05:30-16:00; Sa-Su 06:30-16:00", "phone": "+1-310-786-7400", "toilets": "yes", "toilets:access": "customers", "toilets:unisex": "no"}}, {"type": "node", "id": 5742849224, "lat": 34.0705003, "lon": -118.402246, "tags": {"amenity": "cafe", "brand": "Starbucks", "brand:wikidata": "Q37158", "brand:wikipedia": "en:Starbucks", "cuisine": "coffee_shop", "name": "Starbucks", "official_name": "Starbucks Coffee", "takeaway": "yes"}}, {"type": "node", "id": 5852254960, "lat": 34.0702682, "lon": -118.4016713, "tags": {"addr:city": "Beverly Hills", "addr:housenumber": "9433", "addr:postcode": "90210", "addr:state": "CA", "addr:street": "Brighton Way", "amenity": "cafe", "cuisine": "american", "name": "Croft Alley", "opening_hours": "09:00-16:00"}}, {"type": "node", "id": 6772059301, "lat": 34.0627524, "lon": -118.3837795, "tags": {"amenity": "cafe"}}, {"type": "node", "id": 7150714185, "lat": 34.0635765, "lon": -118.376383, "tags": {"amenity": "cafe", "brand": "Starbucks", "brand:wikidata": "Q37158", "brand:wikipedia": "en:Starbucks", "cuisine": "coffee_shop", "name": "Starbucks", "official_name": "Starbucks Coffee", "takeaway": "yes"}}, {"type": "node", "id": 7214788827, "lat": 34.0598128, "lon": -118.3905623, "tags": {"addr:housenumber": "9123", "addr:street": "West Olympic Boulevard", "amenity": "cafe", "name": "Tarte Tatin", "opening_hours": "Mo-Th 08:00-17:00; Fr-Su 08:00-16:00", "outdoor_seating": "yes"}}, {"type": "node", "id": 7234311185, "lat": 34.065805, "lon": -118.3838182, "tags": {"addr:housenumber": "155", "addr:street": "South Robertson Boulevard", "amenity": "cafe", "name": "Lazy Daisy"}}, {"type": "node", "id": 7248550479, "lat": 34.0590687, "lon": -118.3874912, "tags": {"addr:city": "Beverly Hills", "addr:housenumber": "8950", "addr:postcode": "90211", "addr:street": "West Olympic Boulevard", "amenity": "cafe", "level": "0", "name": "La Provence Patisserie & Cafe", "phone": "+1-310-888-8833", "shop": "pastry", "website": "http://laprovencecafe.com"}}, {"type": "node", "id": 9015500174, "lat": 34.0595556, "lon": -118.3896209, "tags": {"amenity": "cafe", "brand": "Starbucks", "brand:wikidata": "Q37158", "brand:wikipedia": "en:Starbucks", "cuisine": "coffee_shop", "name": "Starbucks", "official_name": "Starbucks Coffee", "takeaway": "yes"}}]}